{
  "type": "FeatureCollection",
  "features": [
    {
      "type": "Feature",
      "properties": {
        "norad_id": 66500,
        "name": "STARLINK-35894",
        "group": "last-30-days",
        "lat": 38.57333891428087,
        "lon": -121.27960166827346,
        "alt_km": 351.2921329289038,
        "timestamp": "2025-12-03T10:52:56.222149+00:00",
        "meta_object_name": "STARLINK-35894",
        "meta_object_id": "2025-263R",
        "meta_epoch": "2025-12-03T04:00:01.998720",
        "meta_mean_motion": 15.72461274,
        "meta_eccentricity": 0.0001465,
        "meta_inclination": 42.999,
        "meta_ra_of_asc_node": 181.5928,
        "meta_arg_of_pericenter": 265.4862,
        "meta_mean_anomaly": 336.3345,
        "meta_ephemeris_type": 0,
        "meta_classification_type": "U",
        "meta_norad_cat_id": 66500,
        "meta_element_set_no": 999,
        "meta_rev_at_epoch": 409,
        "meta_bstar": -0.020559,
        "meta_mean_motion_dot": -0.0247618,
        "meta_mean_motion_ddot": 0,
        "tle_line1": "1 66500U 25263R   25337.16668980 -.02476180  00000+0 -20559-1 0  9990",
        "tle_line2": "2 66500  42.9990 181.5928 0001465 265.4862 336.3345 15.72461274  4094"
      },
      "geometry": {
        "type": "Point",
        "coordinates": [
          -121.27960166827346,
          38.57333891428087
        ]
      }
    },
    {
      "type": "Feature",
      "properties": {
        "norad_id": 66501,
        "name": "STARLINK-35897",
        "group": "last-30-days",
        "lat": 40.053732409126305,
        "lon": -115.69800131535753,
        "alt_km": 349.1924264523859,
        "timestamp": "2025-12-03T10:52:56.222161+00:00",
        "meta_object_name": "STARLINK-35897",
        "meta_object_id": "2025-263S",
        "meta_epoch": "2025-12-03T04:00:01.998720",
        "meta_mean_motion": 15.72803319,
        "meta_eccentricity": 0.0001453,
        "meta_inclination": 42.999,
        "meta_ra_of_asc_node": 181.5822,
        "meta_arg_of_pericenter": 263.8302,
        "meta_mean_anomaly": 342.0411,
        "meta_ephemeris_type": 0,
        "meta_classification_type": "U",
        "meta_norad_cat_id": 66501,
        "meta_element_set_no": 999,
        "meta_rev_at_epoch": 409,
        "meta_bstar": -0.016084,
        "meta_mean_motion_dot": -0.01982357,
        "meta_mean_motion_ddot": 0,
        "tle_line1": "1 66501U 25263S   25337.16668980 -.01982357  00000+0 -16084-1 0  9996",
        "tle_line2": "2 66501  42.9990 181.5822 0001453 263.8302 342.0411 15.72803319  4094"
      },
      "geometry": {
        "type": "Point",
        "coordinates": [
          -115.69800131535753,
          40.053732409126305
        ]
      }
    },
    {
      "type": "Feature",
      "properties": {
        "norad_id": 66502,
        "name": "STARLINK-35922",
        "group": "last-30-days",
        "lat": 41.51605340680729,
        "lon": -108.35857269552152,
        "alt_km": 348.97205699353253,
        "timestamp": "2025-12-03T10:52:56.222174+00:00",
        "meta_object_name": "STARLINK-35922",
        "meta_object_id": "2025-263T",
        "meta_epoch": "2025-12-03T04:00:01.998720",
        "meta_mean_motion": 15.7280189,
        "meta_eccentricity": 0.0001462,
        "meta_inclination": 42.9991,
        "meta_ra_of_asc_node": 181.5673,
        "meta_arg_of_pericenter": 266.8681,
        "meta_mean_anomaly": 344.7501,
        "meta_ephemeris_type": 0,
        "meta_classification_type": "U",
        "meta_norad_cat_id": 66502,
        "meta_element_set_no": 999,
        "meta_rev_at_epoch": 409,
        "meta_bstar": -0.016015,
        "meta_mean_motion_dot": -0.0197482,
        "meta_mean_motion_ddot": 0,
        "tle_line1": "1 66502U 25263T   25337.16668980 -.01974820  00000+0 -16015-1 0  9997",
        "tle_line2": "2 66502  42.9991 181.5673 0001462 266.8681 344.7501 15.72801890  4094"
      },
      "geometry": {
        "type": "Point",
        "coordinates": [
          -108.35857269552152,
          41.51605340680729
        ]
      }
    },
    {
      "type": "Feature",
      "properties": {
        "norad_id": 66503,
        "name": "STARLINK-35917",
        "group": "last-30-days",
        "lat": 42.230963898351526,
        "lon": -103.22052103270771,
        "alt_km": 348.68346986046527,
        "timestamp": "2025-12-03T10:52:56.222185+00:00",
        "meta_object_name": "STARLINK-35917",
        "meta_object_id": "2025-263U",
        "meta_epoch": "2025-12-02T16:00:03.000096",
        "meta_mean_motion": 15.74924478,
        "meta_eccentricity": 0.00012359,
        "meta_inclination": 42.9982,
        "meta_ra_of_asc_node": 184.5859,
        "meta_arg_of_pericenter": 259.7629,
        "meta_mean_anomaly": 39.3845,
        "meta_ephemeris_type": 0,
        "meta_classification_type": "U",
        "meta_norad_cat_id": 66503,
        "meta_element_set_no": 999,
        "meta_rev_at_epoch": 401,
        "meta_bstar": -0.014593096,
        "meta_mean_motion_dot": -0.01934021,
        "meta_mean_motion_ddot": 0,
        "tle_line1": "1 66503U 25263U   25336.66670139 -.01934021  00000+0 -14593-1 0  9999",
        "tle_line2": "2 66503  42.9982 184.5859 0001235 259.7629  39.3845 15.74924478  4015"
      },
      "geometry": {
        "type": "Point",
        "coordinates": [
          -103.22052103270771,
          42.230963898351526
        ]
      }
    },
    {
      "type": "Feature",
      "properties": {
        "norad_id": 66504,
        "name": "STARLINK-35916",
        "group": "last-30-days",
        "lat": -33.18635907851125,
        "lon": 44.90078449966879,
        "alt_km": 410.92997826690043,
        "timestamp": "2025-12-03T10:52:56.222195+00:00",
        "meta_object_name": "STARLINK-35916",
        "meta_object_id": "2025-263V",
        "meta_epoch": "2025-12-03T04:00:01.998720",
        "meta_mean_motion": 15.5433038,
        "meta_eccentricity": 0.0001499,
        "meta_inclination": 43.0079,
        "meta_ra_of_asc_node": 182.0234,
        "meta_arg_of_pericenter": 283.6008,
        "meta_mean_anomaly": 144.1904,
        "meta_ephemeris_type": 0,
        "meta_classification_type": "U",
        "meta_norad_cat_id": 66504,
        "meta_element_set_no": 999,
        "meta_rev_at_epoch": 409,
        "meta_bstar": -0.04291,
        "meta_mean_motion_dot": -0.02552599,
        "meta_mean_motion_ddot": 0,
        "tle_line1": "1 66504U 25263V   25337.16668980 -.02552599  00000+0 -42910-1 0  9998",
        "tle_line2": "2 66504  43.0079 182.0234 0001499 283.6008 144.1904 15.54330380  4094"
      },
      "geometry": {
        "type": "Point",
        "coordinates": [
          44.90078449966879,
          -33.18635907851125
        ]
      }
    },
    {
      "type": "Feature",
      "properties": {
        "norad_id": 66505,
        "name": "STARLINK-34766",
        "group": "last-30-days",
        "lat": 40.59160893298503,
        "lon": -113.29319561459081,
        "alt_km": 349.1136671426666,
        "timestamp": "2025-12-03T10:52:56.222208+00:00",
        "meta_object_name": "STARLINK-34766",
        "meta_object_id": "2025-263W",
        "meta_epoch": "2025-12-03T04:00:01.998720",
        "meta_mean_motion": 15.72804362,
        "meta_eccentricity": 0.0001441,
        "meta_inclination": 42.9989,
        "meta_ra_of_asc_node": 181.5771,
        "meta_arg_of_pericenter": 261.0845,
        "meta_mean_anomaly": 346.6975,
        "meta_ephemeris_type": 0,
        "meta_classification_type": "U",
        "meta_norad_cat_id": 66505,
        "meta_element_set_no": 999,
        "meta_rev_at_epoch": 409,
        "meta_bstar": -0.016039,
        "meta_mean_motion_dot": -0.01977628,
        "meta_mean_motion_ddot": 0,
        "tle_line1": "1 66505U 25263W   25337.16668980 -.01977628  00000+0 -16039-1 0  9995",
        "tle_line2": "2 66505  42.9989 181.5771 0001441 261.0845 346.6975 15.72804362  4092"
      },
      "geometry": {
        "type": "Point",
        "coordinates": [
          -113.29319561459081,
          40.59160893298503
        ]
      }
    },
    {
      "type": "Feature",
      "properties": {
        "norad_id": 66506,
        "name": "STARLINK-34765",
        "group": "last-30-days",
        "lat": 41.080062613838926,
        "lon": -110.84266423457768,
        "alt_km": 349.0328213891453,
        "timestamp": "2025-12-03T10:52:56.222239+00:00",
        "meta_object_name": "STARLINK-34765",
        "meta_object_id": "2025-263X",
        "meta_epoch": "2025-12-03T04:00:01.998720",
        "meta_mean_motion": 15.72805839,
        "meta_eccentricity": 0.0001439,
        "meta_inclination": 42.9989,
        "meta_ra_of_asc_node": 181.5733,
        "meta_arg_of_pericenter": 263.4658,
        "meta_mean_anomaly": 346.2326,
        "meta_ephemeris_type": 0,
        "meta_classification_type": "U",
        "meta_norad_cat_id": 66506,
        "meta_element_set_no": 999,
        "meta_rev_at_epoch": 409,
        "meta_bstar": -0.016058,
        "meta_mean_motion_dot": -0.01979804,
        "meta_mean_motion_ddot": 0,
        "tle_line1": "1 66506U 25263X   25337.16668980 -.01979804  00000+0 -16058-1 0  9995",
        "tle_line2": "2 66506  42.9989 181.5733 0001439 263.4658 346.2326 15.72805839  4092"
      },
      "geometry": {
        "type": "Point",
        "coordinates": [
          -110.84266423457768,
          41.080062613838926
        ]
      }
    }
  ]
}